OBJECT_NAME,OBJECT_ID,EPOCH,MEAN_MOTION,ECCENTRICITY,INCLINATION,RA_OF_ASC_NODE,ARG_OF_PERICENTER,MEAN_ANOMALY,EPHEMERIS_TYPE,CLASSIFICATION_TYPE,NORAD_CAT_ID,ELEMENT_SET_NO,REV_AT_EPOCH,BSTAR,MEAN_MOTION_DOT,MEAN_MOTION_DDOT
CUBEBUG-2 (LO-74),2013-066AA,2026-07-19T06:44:18.325824,14.93983583,.00555619,97.8920,149.4029,281.5253,77.9731,0,U,39440,999,68178,.18027526E-3,.1916E-4,0
FUNCUBE-1 (AO-73),2013-066AE,2026-07-19T04:52:03.822528,15.09850419,.0037989,97.8299,172.3289,94.6504,265.9065,0,U,39444,999,68449,.26516956E-3,.4294E-4,0
UWE-3,2013-066AG,2026-07-19T07:07:22.057248,14.97216256,.00476452,97.8722,156.5949,210.4063,149.4394,0,U,39446,999,68238,.18641868E-3,.2143E-4,0
UNISAT-6,2014-033C,2026-07-19T00:01:07.608864,14.88375092,.00438641,97.7915,352.1617,324.9894,34.8441,0,U,40012,999,65089,.11401936E-3,.1017E-4,0
DUCHIFAT-1,2014-033M,2026-07-19T02:50:23.823456,15.71786235,.00032981,98.0414,263.9486,230.7218,129.3750,0,U,40021,999,66075,.73778873E-3,.96187E-3,0
QB50P1,2014-033R,2026-07-19T07:22:28.507296,15.18701826,.00105077,98.0971,213.7167,112.7163,247.5182,0,U,40025,999,65790,.2101421E-3,.4287E-4,0
LILACSAT-2,2015-049K,2026-07-19T06:03:38.896992,15.52449553,.00085781,97.4624,238.3300,129.7377,230.4632,0,U,40908,999,60072,.17969183E-3,.10901E-3,0
FOX-1A (AO-85),2015-058D,2026-07-19T05:04:39.314496,14.91102753,.01326927,64.7726,179.4497,44.2902,316.8736,0,U,40967,999,11834,.15786453E-3,.1675E-4,0
CAS-2T & KS-1Q,2016-066G,2026-07-19T04:01:44.193504,14.44774518,.03420439,98.3811,275.5381,32.7227,329.4655,0,U,41847,999,50941,.68010786E-4,.423E-5,0
RADFXSAT (FOX-1B),2017-073E,2026-07-19T03:40:35.241024,15.13092374,.01483827,97.4661,66.7165,217.6683,141.4086,0,U,43017,999,47022,.14197432E-3,.3216E-4,0
DIWATA-2B,2018-084H,2026-07-19T05:53:10.020768,15.00571738,.00126276,98.1214,37.8577,71.9781,288.2816,0,U,43678,999,42102,.83668074E-4,.992E-5,0
ES'HAIL 2,2018-090A,2026-07-19T06:27:22.312800,1.00273385,.00023895,0.0181,77.8686,79.9954,261.8224,0,U,43700,999,2799,0,.139E-5,0
FOX-1CLIFF (AO-95),2018-099N,2026-07-19T02:54:15.402240,15.27321019,.00075525,97.4363,260.2606,223.6290,136.4353,0,U,43770,999,41809,.22762983E-3,.6021E-4,0
ITASAT,2018-099AE,2026-07-19T02:20:23.460000,15.19408070,.00111154,97.4008,250.9769,234.9585,125.0608,0,U,43786,999,41775,.16053572E-3,.3335E-4,0
JY1SAT (JO-97),2018-099AX,2026-07-19T02:54:19.619424,15.34595342,.00071612,97.4105,263.0849,146.3661,213.8038,0,U,43803,999,41852,.28756169E-3,.9568E-4,0
UWE-4,2018-111E,2026-07-18T18:41:09.153024,15.47960214,.00066755,97.5834,129.6699,180.9155,179.2083,0,U,43880,999,41566,.35826827E-3,.18634E-3,0
TIANYAN 01,2019-093C,2026-07-19T06:53:10.821984,14.86564062,.0013154,97.7514,271.7344,347.8970,12.1928,0,U,44881,999,35618,.77459086E-4,.634E-5,0
RS-44 & BREEZE-KM R/B,2019-096E,2026-07-19T07:02:57.747552,12.79748904,.0218464,82.5244,318.3715,69.4639,292.9757,0,U,44909,999,30645,.20885198E-4,.18E-6,0
SALSAT,2020-068K,2026-07-19T06:10:12.366912,15.30204681,.0009659,97.8864,205.2860,178.4698,181.6573,0,U,46495,999,32026,.13357219E-3,.3822E-4,0
XW-3 (CAS-9),2021-131B,2026-07-19T06:21:17.437824,14.41383828,.00043169,98.4987,292.4815,19.9345,340.2012,0,U,50466,999,23973,.88283977E-4,.242E-5,0
GREENCUBE (IO-117),2022-080E,2026-07-19T05:53:22.496064,6.42583325,.00090857,70.1403,287.0980,282.5487,77.4156,0,U,53109,999,9412,0,-.3E-7,0
UMKA 1 (RS40S),2023-091G,2026-07-19T06:20:43.104192,15.21146067,.00126307,97.5029,258.8423,15.8843,344.2786,0,U,57172,999,16888,.13200873E-3,.2874E-4,0
CUBESX-HSE 3 (RS42S),2023-091N,2026-07-19T06:03:14.982336,15.31941640,.0009248,97.5068,266.2591,346.7992,13.3005,0,U,57178,999,16933,.22390837E-3,.6833E-4,0
MONITOR-3 (RS58S),2023-091Q,2026-07-19T06:48:28.565280,15.28416418,.00105569,97.5061,263.9758,355.0239,5.0894,0,U,57180,999,16919,.18053088E-3,.4924E-4,0
MONITOR-4 (RS57S),2023-091S,2026-07-19T06:15:44.236224,15.28503772,.00105511,97.5055,263.9258,355.4623,4.6519,0,U,57182,999,16919,.19190204E-3,.5253E-4,0
MONITOR-2 (RS39S),2023-091U,2026-07-19T06:15:29.253600,15.19174184,.00109849,97.5051,258.3388,10.3798,349.7661,0,U,57184,999,16882,.11017526E-3,.225E-4,0
SVYATOBOR 1 (RS60S),2023-091X,2026-07-19T04:07:01.387776,15.27099587,.00083385,97.5067,264.1737,349.9971,10.1101,0,U,57187,999,16919,.16530894E-3,.4321E-4,0
VIZARD-METEO (RS38S),2023-091Z,2026-07-19T06:05:25.454976,15.36948727,.00053454,97.5069,270.4015,321.8867,38.1998,0,U,57189,999,16961,.24367087E-3,.8725E-4,0
POLYTECH-UNIVERSE 3 (RS46S),2023-091AB,2026-07-19T06:48:20.225952,15.19387396,.00156772,97.5026,257.8656,24.0470,336.1493,0,U,57191,999,16882,.11246971E-3,.2317E-4,0
UTMN 2 (RS27S),2023-091AP,2026-07-19T06:03:44.154432,15.32757000,.00063548,97.5065,267.9321,334.0489,26.0434,0,U,57203,999,16945,.20351466E-3,.636E-4,0
